COSMOS 2151             
1 21422U 91042A   25325.13779845  .00001662  00000+0  13276-3 0  9994
2 21422  82.4977 188.3171 0014068  67.9006 292.3710 14.99576566846927
SL-14 R/B               
1 21423U 91042B   25325.10465490  .00000461  00000+0  55535-4 0  9991
2 21423  82.4914 322.0142 0015707 234.9680 125.0061 14.81710057836992
ERS-1                   
1 21574U 91050A   25325.04803529  .00000346  00000+0  12561-3 0  9992
2 21574  98.7915 335.5593 0032335 162.8411 197.3876 14.39340989800102
ARIANE 40 R/B           
1 21610U 91050F   25325.56534705  .00000399  00000+0  13214-3 0  9991
2 21610  98.2195  16.7573 0003983  56.8897 303.2675 14.42787908803402
INTERCOSMOS 25          
1 21819U 91086A   25325.58210103  .00001223  00000+0  23958-3 0  9999
2 21819  82.6078  15.3677 1487673 350.0156   7.4105 12.11632448483597
SL-8 R/B                
1 21876U 92008B   25325.15544917  .00000131  00000+0  11822-3 0  9997
2 21876  82.9272 348.5026 0036092  78.4736 345.4947 13.75952214694496
SL-8 R/B                
1 21938U 92020B   25325.24714617  .00000096  00000+0  83527-4 0  9998
2 21938  82.9317 234.2755 0027759 239.6404 231.4399 13.75523191686223
USA 81                  
1 21949U 92023A   25325.58701574  .00000214  00000+0  72066-4 0  9996
2 21949  85.0100 193.7736 0002383  69.1444 291.0003 14.32316250 79313
COSMOS 2219             
1 22219U 92076A   25325.14913830 -.00000120  00000+0 -38008-4 0  9993
2 22219  71.0609 244.9629 0018228 357.4346   2.6680 14.14067436703031
SL-16 R/B               
1 22220U 92076B   25324.70948222 -.00000024  00000+0  12060-4 0  9991
2 22220  71.0010  57.9363 0015189 262.7094 259.0043 14.16835509706396
COSMOS 2221             
1 22236U 92080A   25324.60696782  .00001807  00000+0  16004-3 0  9993
2 22236  82.5064  23.5064 0014285 193.1892 166.8959 14.95642506764480
SL-16 R/B               
1 22285U 92093B   25325.18937455 -.00000030  00000+0  91112-5 0  9993
2 22285  71.0218 232.0318 0002188 137.0476 223.0819 14.15428223697803
