CCSDS_OMM_VERS = 2.0
CREATION_DATE  = 
ORIGINATOR     = 

OBJECT_NAME    = COSMOS 2151
OBJECT_ID      = 1991-042A
CENTER_NAME    = EARTH
REF_FRAME      = TEME
TIME_SYSTEM    = UTC
MEAN_ELEMENT_THEORY = SGP/SGP4

EPOCH          = 2025-11-21T03:18:25.786080
MEAN_MOTION    = 14.99576566
ECCENTRICITY   = .0014068
INCLINATION    = 82.4977
RA_OF_ASC_NODE = 188.3171
ARG_OF_PERICENTER = 67.9006
MEAN_ANOMALY   = 292.3710

EPHEMERIS_TYPE = 0
CLASSIFICATION_TYPE = U
NORAD_CAT_ID   = 21422
ELEMENT_SET_NO = 999
REV_AT_EPOCH   = 84692
BSTAR          = .13276E-3
MEAN_MOTION_DOT = .1662E-4
MEAN_MOTION_DDOT = 0

CCSDS_OMM_VERS = 2.0
CREATION_DATE  = 
ORIGINATOR     = 

OBJECT_NAME    = SL-14 R/B
OBJECT_ID      = 1991-042B
CENTER_NAME    = EARTH
REF_FRAME      = TEME
TIME_SYSTEM    = UTC
MEAN_ELEMENT_THEORY = SGP/SGP4

EPOCH          = 2025-11-21T02:30:42.183360
MEAN_MOTION    = 14.81710057
ECCENTRICITY   = .0015707
INCLINATION    = 82.4914
RA_OF_ASC_NODE = 322.0142
ARG_OF_PERICENTER = 234.9680
MEAN_ANOMALY   = 125.0061

EPHEMERIS_TYPE = 0
CLASSIFICATION_TYPE = U
NORAD_CAT_ID   = 21423
ELEMENT_SET_NO = 999
REV_AT_EPOCH   = 83699
BSTAR          = .55535E-4
MEAN_MOTION_DOT = .461E-5
MEAN_MOTION_DDOT = 0

CCSDS_OMM_VERS = 2.0
CREATION_DATE  = 
ORIGINATOR     = 

OBJECT_NAME    = ERS-1
OBJECT_ID      = 1991-050A
CENTER_NAME    = EARTH
REF_FRAME      = TEME
TIME_SYSTEM    = UTC
MEAN_ELEMENT_THEORY = SGP/SGP4

EPOCH          = 2025-11-21T01:09:10.249056
MEAN_MOTION    = 14.39340989
ECCENTRICITY   = .0032335
INCLINATION    = 98.7915
RA_OF_ASC_NODE = 335.5593
ARG_OF_PERICENTER = 162.8411
MEAN_ANOMALY   = 197.3876

EPHEMERIS_TYPE = 0
CLASSIFICATION_TYPE = U
NORAD_CAT_ID   = 21574
ELEMENT_SET_NO = 999
REV_AT_EPOCH   = 80010
BSTAR          = .12561E-3
MEAN_MOTION_DOT = .346E-5
MEAN_MOTION_DDOT = 0

CCSDS_OMM_VERS = 2.0
CREATION_DATE  = 
ORIGINATOR     = 

OBJECT_NAME    = ARIANE 40 R/B
OBJECT_ID      = 1991-050F
CENTER_NAME    = EARTH
REF_FRAME      = TEME
TIME_SYSTEM    = UTC
MEAN_ELEMENT_THEORY = SGP/SGP4

EPOCH          = 2025-11-21T13:34:05.985120
MEAN_MOTION    = 14.42787908
ECCENTRICITY   = .0003983
INCLINATION    = 98.2195
RA_OF_ASC_NODE = 16.7573
ARG_OF_PERICENTER = 56.8897
MEAN_ANOMALY   = 303.2675

EPHEMERIS_TYPE = 0
CLASSIFICATION_TYPE = U
NORAD_CAT_ID   = 21610
ELEMENT_SET_NO = 999
REV_AT_EPOCH   = 80340
BSTAR          = .13214E-3
MEAN_MOTION_DOT = .399E-5
MEAN_MOTION_DDOT = 0

CCSDS_OMM_VERS = 2.0
CREATION_DATE  = 
ORIGINATOR     = 

OBJECT_NAME    = INTERCOSMOS 25
OBJECT_ID      = 1991-086A
CENTER_NAME    = EARTH
REF_FRAME      = TEME
TIME_SYSTEM    = UTC
MEAN_ELEMENT_THEORY = SGP/SGP4

EPOCH          = 2025-11-21T13:58:13.528992
MEAN_MOTION    = 12.11632448
ECCENTRICITY   = .1487673
INCLINATION    = 82.6078
RA_OF_ASC_NODE = 15.3677
ARG_OF_PERICENTER = 350.0156
MEAN_ANOMALY   = 7.4105

EPHEMERIS_TYPE = 0
CLASSIFICATION_TYPE = U
NORAD_CAT_ID   = 21819
ELEMENT_SET_NO = 999
REV_AT_EPOCH   = 48359
BSTAR          = .23958E-3
MEAN_MOTION_DOT = .1223E-4
MEAN_MOTION_DDOT = 0

CCSDS_OMM_VERS = 2.0
CREATION_DATE  = 
ORIGINATOR     = 

OBJECT_NAME    = SL-8 R/B
OBJECT_ID      = 1992-008B
CENTER_NAME    = EARTH
REF_FRAME      = TEME
TIME_SYSTEM    = UTC
MEAN_ELEMENT_THEORY = SGP/SGP4

EPOCH          = 2025-11-21T03:43:50.808288
MEAN_MOTION    = 13.75952214
ECCENTRICITY   = .0036092
INCLINATION    = 82.9272
RA_OF_ASC_NODE = 348.5026
ARG_OF_PERICENTER = 78.4736
MEAN_ANOMALY   = 345.4947

EPHEMERIS_TYPE = 0
CLASSIFICATION_TYPE = U
NORAD_CAT_ID   = 21876
ELEMENT_SET_NO = 999
REV_AT_EPOCH   = 69449
BSTAR          = .11822E-3
MEAN_MOTION_DOT = .131E-5
MEAN_MOTION_DDOT = 0

CCSDS_OMM_VERS = 2.0
CREATION_DATE  = 
ORIGINATOR     = 

OBJECT_NAME    = SL-8 R/B
OBJECT_ID      = 1992-020B
CENTER_NAME    = EARTH
REF_FRAME      = TEME
TIME_SYSTEM    = UTC
MEAN_ELEMENT_THEORY = SGP/SGP4

EPOCH          = 2025-11-21T05:55:53.429088
MEAN_MOTION    = 13.75523191
ECCENTRICITY   = .0027759
INCLINATION    = 82.9317
RA_OF_ASC_NODE = 234.2755
ARG_OF_PERICENTER = 239.6404
MEAN_ANOMALY   = 231.4399

EPHEMERIS_TYPE = 0
CLASSIFICATION_TYPE = U
NORAD_CAT_ID   = 21938
ELEMENT_SET_NO = 999
REV_AT_EPOCH   = 68622
BSTAR          = .83527E-4
MEAN_MOTION_DOT = .96E-6
MEAN_MOTION_DDOT = 0

CCSDS_OMM_VERS = 2.0
CREATION_DATE  = 
ORIGINATOR     = 

OBJECT_NAME    = USA 81
OBJECT_ID      = 1992-023A
CENTER_NAME    = EARTH
REF_FRAME      = TEME
TIME_SYSTEM    = UTC
MEAN_ELEMENT_THEORY = SGP/SGP4

EPOCH          = 2025-11-21T14:05:18.159936
MEAN_MOTION    = 14.32316250
ECCENTRICITY   = .0002383
INCLINATION    = 85.0100
RA_OF_ASC_NODE = 193.7736
ARG_OF_PERICENTER = 69.1444
MEAN_ANOMALY   = 291.0003

EPHEMERIS_TYPE = 0
CLASSIFICATION_TYPE = U
NORAD_CAT_ID   = 21949
ELEMENT_SET_NO = 999
REV_AT_EPOCH   = 7931
BSTAR          = .72066E-4
MEAN_MOTION_DOT = .214E-5
MEAN_MOTION_DDOT = 0

CCSDS_OMM_VERS = 2.0
CREATION_DATE  = 
ORIGINATOR     = 

OBJECT_NAME    = COSMOS 2219
OBJECT_ID      = 1992-076A
CENTER_NAME    = EARTH
REF_FRAME      = TEME
TIME_SYSTEM    = UTC
MEAN_ELEMENT_THEORY = SGP/SGP4

EPOCH          = 2025-11-21T03:34:45.549120
MEAN_MOTION    = 14.14067436
ECCENTRICITY   = .0018228
INCLINATION    = 71.0609
RA_OF_ASC_NODE = 244.9629
ARG_OF_PERICENTER = 357.4346
MEAN_ANOMALY   = 2.6680

EPHEMERIS_TYPE = 0
CLASSIFICATION_TYPE = U
NORAD_CAT_ID   = 22219
ELEMENT_SET_NO = 999
REV_AT_EPOCH   = 70303
BSTAR          = -.38008E-4
MEAN_MOTION_DOT = -.12E-5
MEAN_MOTION_DDOT = 0

CCSDS_OMM_VERS = 2.0
CREATION_DATE  = 
ORIGINATOR     = 

OBJECT_NAME    = SL-16 R/B
OBJECT_ID      = 1992-076B
CENTER_NAME    = EARTH
REF_FRAME      = TEME
TIME_SYSTEM    = UTC
MEAN_ELEMENT_THEORY = SGP/SGP4

EPOCH          = 2025-11-20T17:01:39.263808
MEAN_MOTION    = 14.16835509
ECCENTRICITY   = .00151893
INCLINATION    = 71.0010
RA_OF_ASC_NODE = 57.9363
ARG_OF_PERICENTER = 262.7094
MEAN_ANOMALY   = 259.0043

EPHEMERIS_TYPE = 0
CLASSIFICATION_TYPE = U
NORAD_CAT_ID   = 22220
ELEMENT_SET_NO = 999
REV_AT_EPOCH   = 70639
BSTAR          = .12059737E-4
MEAN_MOTION_DOT = -.24E-6
MEAN_MOTION_DDOT = 0

CCSDS_OMM_VERS = 2.0
CREATION_DATE  = 
ORIGINATOR     = 

OBJECT_NAME    = COSMOS 2221
OBJECT_ID      = 1992-080A
CENTER_NAME    = EARTH
REF_FRAME      = TEME
TIME_SYSTEM    = UTC
MEAN_ELEMENT_THEORY = SGP/SGP4

EPOCH          = 2025-11-20T14:34:02.019648
MEAN_MOTION    = 14.95642506
ECCENTRICITY   = .0014285
INCLINATION    = 82.5064
RA_OF_ASC_NODE = 23.5064
ARG_OF_PERICENTER = 193.1892
MEAN_ANOMALY   = 166.8959

EPHEMERIS_TYPE = 0
CLASSIFICATION_TYPE = U
NORAD_CAT_ID   = 22236
ELEMENT_SET_NO = 999
REV_AT_EPOCH   = 76448
BSTAR          = .16004474E-3
MEAN_MOTION_DOT = .1807E-4
MEAN_MOTION_DDOT = 0

CCSDS_OMM_VERS = 2.0
CREATION_DATE  = 
ORIGINATOR     = 

OBJECT_NAME    = SL-16 R/B
OBJECT_ID      = 1992-093B
CENTER_NAME    = EARTH
REF_FRAME      = TEME
TIME_SYSTEM    = UTC
MEAN_ELEMENT_THEORY = SGP/SGP4

EPOCH          = 2025-11-21T04:32:41.961120
MEAN_MOTION    = 14.15428223
ECCENTRICITY   = .0002188
INCLINATION    = 71.0218
RA_OF_ASC_NODE = 232.0318
ARG_OF_PERICENTER = 137.0476
MEAN_ANOMALY   = 223.0819

EPHEMERIS_TYPE = 0
CLASSIFICATION_TYPE = U
NORAD_CAT_ID   = 22285
ELEMENT_SET_NO = 999
REV_AT_EPOCH   = 69780
BSTAR          = .91112E-5
MEAN_MOTION_DOT = -.3E-6
MEAN_MOTION_DDOT = 0

